{"type": "FeatureCollection", "features": [ {"type": "Feature", "properties": {"norad_id": 30146, "name": "FENGYUN 1C DEB", "group": "fengyun-1c-debris", "lat": -81.97508894649809, "lon": -128.94528569407984, "alt_km": 1029.8846767110017, "timestamp": "2025-12-06T09:34:17.187994+00:00", "meta": {"OBJECT_NAME": "FENGYUN 1C DEB", "OBJECT_ID": "1999-025TB", "EPOCH": "2025-12-05T22:40:20.289792", "MEAN_MOTION": 13.86581736, "ECCENTRICITY": 0.01787237, "INCLINATION": 98.02, "RA_OF_ASC_NODE": 140.528, "ARG_OF_PERICENTER": 141.6924, "MEAN_ANOMALY": 21.0749, "EPHEMERIS_TYPE": 0, "CLASSIFICATION_TYPE": "U", "NORAD_CAT_ID": 30146, "ELEMENT_SET_NO": 999, "REV_AT_EPOCH": 95323, "BSTAR": 0.0011525695, "MEAN_MOTION_DOT": 1.485e-05, "MEAN_MOTION_DDOT": 0}, "tle": {"line1": "1 30146U 99025TB  25339.94467928  .00001485  00000+0  11526-2 0  9994", "line2": "2 30146  98.0200 140.5280 0178723 141.6924  21.0749 13.86581736953233"}}, "geometry": {"type": "Point", "coordinates": [-128.94528569407984, -81.97508894649809]}}, {"type": "Feature", "properties": {"norad_id": 30148, "name": "FENGYUN 1C DEB", "group": "fengyun-1c-debris", "lat": -68.68439650015029, "lon": -75.9892711995176, "alt_km": 862.2911244106544, "timestamp": "2025-12-06T09:34:17.188004+00:00", "meta": {"OBJECT_NAME": "FENGYUN 1C DEB", "OBJECT_ID": "1999-025TD", "EPOCH": "2025-12-05T16:53:02.915808", "MEAN_MOTION": 13.88462574, "ECCENTRICITY": 0.01348386, "INCLINATION": 99.5452, "RA_OF_ASC_NODE": 128.8439, "ARG_OF_PERICENTER": 215.3673, "MEAN_ANOMALY": 160.912, "EPHEMERIS_TYPE": 0, "CLASSIFICATION_TYPE": "U", "NORAD_CAT_ID": 30148, "ELEMENT_SET_NO": 999, "REV_AT_EPOCH": 95419, "BSTAR": 0.0015131632, "MEAN_MOTION_DOT": 1.906e-05, "MEAN_MOTION_DDOT": 0}, "tle": {"line1": "1 30148U 99025TD  25339.70350597  .00001906  00000+0  15132-2 0  9998", "line2": "2 30148  99.5452 128.8439 0134838 215.3673 160.9120 13.88462574954196"}}, "geometry": {"type": "Point", "coordinates": [-75.9892711995176, -68.68439650015029]}}, {"type": "Feature", "properties": {"norad_id": 30150, "name": "FENGYUN 1C DEB", "group": "fengyun-1c-debris", "lat": 69.7335430372135, "lon": 91.23234904706197, "alt_km": 910.7664063880939, "timestamp": "2025-12-06T09:34:17.188014+00:00", "meta": {"OBJECT_NAME": "FENGYUN 1C DEB", "OBJECT_ID": "1999-025TF", "EPOCH": "2025-12-05T09:17:33.001728", "MEAN_MOTION": 13.86580642, "ECCENTRICITY": 0.01466684, "INCLINATION": 98.9942, "RA_OF_ASC_NODE": 115.659, "ARG_OF_PERICENTER": 356.114, "MEAN_ANOMALY": 67.0662, "EPHEMERIS_TYPE": 0, "CLASSIFICATION_TYPE": "U", "NORAD_CAT_ID": 30150, "ELEMENT_SET_NO": 999, "REV_AT_EPOCH": 95356, "BSTAR": 0.00073935819, "MEAN_MOTION_DOT": 8.92e-06, "MEAN_MOTION_DDOT": 0}, "tle": {"line1": "1 30150U 99025TF  25339.38718752  .00000892  00000+0  73936-3 0  9996", "line2": "2 30150  98.9942 115.6590 0146668 356.1140  67.0662 13.86580642953568"}}, "geometry": {"type": "Point", "coordinates": [91.23234904706197, 69.7335430372135]}}, {"type": "Feature", "properties": {"norad_id": 30151, "name": "FENGYUN 1C DEB", "group": "fengyun-1c-debris", "lat": -76.54403050851732, "lon": 30.436601656382663, "alt_km": 840.2278295343567, "timestamp": "2025-12-06T09:34:17.188025+00:00", "meta": {"OBJECT_NAME": "FENGYUN 1C DEB", "OBJECT_ID": "1999-025TG", "EPOCH": "2025-12-05T23:48:20.012256", "MEAN_MOTION": 13.84457415, "ECCENTRICITY": 0.01632333, "INCLINATION": 99.0633, "RA_OF_ASC_NODE": 348.1998, "ARG_OF_PERICENTER": 296.9879, "MEAN_ANOMALY": 116.5489, "EPHEMERIS_TYPE": 0, "CLASSIFICATION_TYPE": "U", "NORAD_CAT_ID": 30151, "ELEMENT_SET_NO": 999, "REV_AT_EPOCH": 95152, "BSTAR": 0.001085109, "MEAN_MOTION_DOT": 1.304e-05, "MEAN_MOTION_DDOT": 0}, "tle": {"line1": "1 30151U 99025TG  25339.99189829  .00001304  00000+0  10851-2 0  9996", "line2": "2 30151  99.0633 348.1998 0163233 296.9879 116.5489 13.84457415951520"}}, "geometry": {"type": "Point", "coordinates": [30.436601656382663, -76.54403050851732]}}, {"type": "Feature", "properties": {"norad_id": 30152, "name": "FENGYUN 1C DEB", "group": "fengyun-1c-debris", "lat": 53.09886406423885, "lon": 30.524026239360072, "alt_km": 792.0849538288985, "timestamp": "2025-12-06T09:34:17.188051+00:00", "meta": {"OBJECT_NAME": "FENGYUN 1C DEB", "OBJECT_ID": "1999-025TH", "EPOCH": "2025-12-05T20:56:50.224128", "MEAN_MOTION": 13.96617299, "ECCENTRICITY": 0.01612149, "INCLINATION": 99.0796, "RA_OF_ASC_NODE": 197.7084, "ARG_OF_PERICENTER": 104.2927, "MEAN_ANOMALY": 257.6197, "EPHEMERIS_TYPE": 0, "CLASSIFICATION_TYPE": "U", "NORAD_CAT_ID": 30152, "ELEMENT_SET_NO": 999, "REV_AT_EPOCH": 95282, "BSTAR": 0.0036592334, "MEAN_MOTION_DOT": 5.616e-05, "MEAN_MOTION_DDOT": 0}, "tle": {"line1": "1 30152U 99025TH  25339.87280352  .00005616  00000+0  36592-2 0  9997", "line2": "2 30152  99.0796 197.7084 0161214 104.2927 257.6197 13.96617299952825"}}, "geometry": {"type": "Point", "coordinates": [30.524026239360072, 53.09886406423885]}}, {"type": "Feature", "properties": {"norad_id": 30153, "name": "FENGYUN 1C DEB", "group": "fengyun-1c-debris", "lat": 10.276247967905231, "lon": 152.04906957121287, "alt_km": 1093.7364805093566, "timestamp": "2025-12-06T09:34:17.188065+00:00", "meta": {"OBJECT_NAME": "FENGYUN 1C DEB", "OBJECT_ID": "1999-025TJ", "EPOCH": "2025-12-05T22:26:56.520096", "MEAN_MOTION": 13.78739655, "ECCENTRICITY": 0.02009099, "INCLINATION": 100.4672, "RA_OF_ASC_NODE": 329.6172, "ARG_OF_PERICENTER": 22.8472, "MEAN_ANOMALY": 6.2862, "EPHEMERIS_TYPE": 0, "CLASSIFICATION_TYPE": "U", "NORAD_CAT_ID": 30153, "ELEMENT_SET_NO": 999, "REV_AT_EPOCH": 94681, "BSTAR": 0.0017401189, "MEAN_MOTION_DOT": 2.004e-05, "MEAN_MOTION_DDOT": 0}, "tle": {"line1": "1 30153U 99025TJ  25339.93537639  .00002004  00000+0  17401-2 0  9994", "line2": "2 30153 100.4672 329.6172 0200909  22.8472   6.2862 13.78739655946815"}}, "geometry": {"type": "Point", "coordinates": [152.04906957121287, 10.276247967905231]}}, {"type": "Feature", "properties": {"norad_id": 30154, "name": "FENGYUN 1C DEB", "group": "fengyun-1c-debris", "lat": -73.53384928053507, "lon": 172.60698176361595, "alt_km": 846.3653795112323, "timestamp": "2025-12-06T09:34:17.188077+00:00", "meta": {"OBJECT_NAME": "FENGYUN 1C DEB", "OBJECT_ID": "1999-025TK", "EPOCH": "2025-12-05T01:27:14.366016", "MEAN_MOTION": 13.85943744, "ECCENTRICITY": 0.01826653, "INCLINATION": 98.4496, "RA_OF_ASC_NODE": 21.5909, "ARG_OF_PERICENTER": 219.6784, "MEAN_ANOMALY": 201.4835, "EPHEMERIS_TYPE": 0, "CLASSIFICATION_TYPE": "U", "NORAD_CAT_ID": 30154, "ELEMENT_SET_NO": 999, "REV_AT_EPOCH": 94878, "BSTAR": 0.0029858806, "MEAN_MOTION_DOT": 3.873e-05, "MEAN_MOTION_DDOT": 0}, "tle": {"line1": "1 30154U 99025TK  25339.06058294  .00003873  00000+0  29859-2 0  9999", "line2": "2 30154  98.4496  21.5909 0182665 219.6784 201.4835 13.85943744948783"}}, "geometry": {"type": "Point", "coordinates": [172.60698176361595, -73.53384928053507]}}, {"type": "Feature", "properties": {"norad_id": 30155, "name": "FENGYUN 1C DEB", "group": "fengyun-1c-debris", "lat": 31.278965883679103, "lon": 47.79757228589206, "alt_km": 831.2622382593436, "timestamp": "2025-12-06T09:34:17.188088+00:00", "meta": {"OBJECT_NAME": "FENGYUN 1C DEB", "OBJECT_ID": "1999-025TL", "EPOCH": "2025-12-05T21:11:20.110560", "MEAN_MOTION": 13.73762572, "ECCENTRICITY": 0.0241845, "INCLINATION": 99.752, "RA_OF_ASC_NODE": 53.2681, "ARG_OF_PERICENTER": 1.6634, "MEAN_ANOMALY": 358.5265, "EPHEMERIS_TYPE": 0, "CLASSIFICATION_TYPE": "U", "NORAD_CAT_ID": 30155, "ELEMENT_SET_NO": 999, "REV_AT_EPOCH": 93770, "BSTAR": 0.0027680122, "MEAN_MOTION_DOT": 3.15e-05, "MEAN_MOTION_DDOT": 0}, "tle": {"line1": "1 30155U 99025TL  25339.88287165  .00003150  00000+0  27680-2 0  9999", "line2": "2 30155  99.7520  53.2681 0241845   1.6634 358.5265 13.73762572937700"}}, "geometry": {"type": "Point", "coordinates": [47.79757228589206, 31.278965883679103]}}, {"type": "Feature", "properties": {"norad_id": 30156, "name": "FENGYUN 1C DEB", "group": "fengyun-1c-debris", "lat": 55.0180926826292, "lon": 140.71428735406514, "alt_km": 1089.4789281561743, "timestamp": "2025-12-06T09:34:17.188098+00:00", "meta": {"OBJECT_NAME": "FENGYUN 1C DEB", "OBJECT_ID": "1999-025TM", "EPOCH": "2025-12-05T21:03:09.908064", "MEAN_MOTION": 13.8077505, "ECCENTRICITY": 0.01999318, "INCLINATION": 98.9177, "RA_OF_ASC_NODE": 307.2551, "ARG_OF_PERICENTER": 281.3671, "MEAN_ANOMALY": 132.055, "EPHEMERIS_TYPE": 0, "CLASSIFICATION_TYPE": "U", "NORAD_CAT_ID": 30156, "ELEMENT_SET_NO": 999, "REV_AT_EPOCH": 94596, "BSTAR": 0.002947956, "MEAN_MOTION_DOT": 3.566e-05, "MEAN_MOTION_DDOT": 0}, "tle": {"line1": "1 30156U 99025TM  25339.87719801  .00003566  00000+0  29480-2 0  9997", "line2": "2 30156  98.9177 307.2551 0199931 281.3671 132.0550 13.80775050945966"}}, "geometry": {"type": "Point", "coordinates": [140.71428735406514, 55.0180926826292]}}, {"type": "Feature", "properties": {"norad_id": 30157, "name": "FENGYUN 1C DEB", "group": "fengyun-1c-debris", "lat": 17.844408582803354, "lon": 74.4380620821342, "alt_km": 768.040387750978, "timestamp": "2025-12-06T09:34:17.188108+00:00", "meta": {"OBJECT_NAME": "FENGYUN 1C DEB", "OBJECT_ID": "1999-025TN", "EPOCH": "2025-12-04T06:13:49.285344", "MEAN_MOTION": 14.44893119, "ECCENTRICITY": 0.0036911, "INCLINATION": 98.7174, "RA_OF_ASC_NODE": 75.075, "ARG_OF_PERICENTER": 217.8089, "MEAN_ANOMALY": 199.005, "EPHEMERIS_TYPE": 0, "CLASSIFICATION_TYPE": "U", "NORAD_CAT_ID": 30157, "ELEMENT_SET_NO": 999, "REV_AT_EPOCH": 97950, "BSTAR": 0.0054888, "MEAN_MOTION_DOT": 0.00019275, "MEAN_MOTION_DDOT": 0}, "tle": {"line1": "1 30157U 99025TN  25338.25959821  .00019275  00000+0  54888-2 0  9991", "line2": "2 30157  98.7174  75.0750 0036911 217.8089 199.0050 14.44893119979501"}}, "geometry": {"type": "Point", "coordinates": [74.4380620821342, 17.844408582803354]}}]}